OBJECT_NAME,OBJECT_ID,EPOCH,MEAN_MOTION,ECCENTRICITY,INCLINATION,RA_OF_ASC_NODE,ARG_OF_PERICENTER,MEAN_ANOMALY,EPHEMERIS_TYPE,CLASSIFICATION_TYPE,NORAD_CAT_ID,ELEMENT_SET_NO,REV_AT_EPOCH,BSTAR,MEAN_MOTION_DOT,MEAN_MOTION_DDOT
ARIANE 40+ R/B,1995-021B,2026-07-09T03:31:35.143392,14.39845419,.00077162,98.4402,259.9038,131.9982,258.0810,0,U,23561,999,63672,.60945585E-4,.148E-5,0
SL-16 R/B,1995-058B,2026-07-09T12:48:53.789760,14.15508224,.0014619,71.0217,284.4411,290.2162,69.7389,0,U,23705,999,58509,-.56605E-4,-.158E-5,0
SL-16 R/B,1996-051B,2026-07-09T06:26:52.198080,14.12454199,.00173296,70.7651,277.9186,305.8479,54.1031,0,U,24298,999,53881,.97896297E-4,.132E-5,0
ORBVIEW 2 (SEASTAR),1997-037A,2026-07-09T17:48:13.832064,14.35565113,.0003227,98.8708,358.3882,71.7834,288.3701,0,U,24883,999,52598,.67593E-4,.148E-5,0
SL-16 R/B,1998-043G,2026-07-09T19:33:25.035840,14.26072208,.0010324,98.8377,145.1702,26.3833,333.7870,0,U,25400,999,45639,.2484E-4,.14E-6,0
SL-16 R/B,1998-045B,2026-07-09T04:51:43.077024,14.16207407,.00084782,71.0122,286.0308,214.9339,145.1229,0,U,25407,999,44430,-.71870815E-4,-.19E-5,0
ISS (ZARYA),1998-067A,2026-07-09T16:50:48.208704,15.48959671,.0006668,51.6304,188.6620,275.8666,84.1562,0,U,25544,999,57524,.1058E-3,.5376E-4,0
CZ-4B R/B,1999-025C,2026-07-09T01:43:41.314080,14.18287007,.00369856,98.6473,231.3586,357.5197,31.3708,0,U,25732,999,40537,.28425502E-4,.16E-6,0
OKEAN-O,1999-039A,2026-07-09T02:39:06.926112,14.80492874,.00010134,97.9304,248.6555,76.9524,283.1801,0,U,25860,999,45235,.53810301E-4,.36E-5,0
SL-16 R/B,1999-039B,2026-07-09T04:18:24.268320,14.81867008,.00138812,97.9826,248.9786,218.8084,141.2133,0,U,25861,999,45485,.46184657E-4,.312E-5,0
DELTA 2 R/B,1999-041E,2026-07-08T16:37:51.987648,14.12066017,.05012359,51.7612,177.8781,345.5594,13.1446,0,U,25876,999,38012,.23115653E-3,.12E-4,0
HELIOS 1B,1999-064A,2026-07-09T04:00:55.899360,14.88065492,.00021884,98.1594,95.9417,61.3924,298.7512,0,U,25977,999,70332,.11657787E-3,.1013E-4,0
TERRA,1999-068A,2026-07-09T06:38:05.158176,14.61120751,.0003146,97.9444,238.9456,134.5499,298.5628,0,U,25994,999,41283,.62002995E-4,.261E-5,0
SL-16 R/B,2000-006B,2026-07-09T00:54:01.410048,14.15839868,.00169415,71.0003,202.6810,348.6607,11.4131,0,U,26070,999,36573,-.96495835E-4,-.238E-5,0
TITAN 4B R/B,2000-047B,2026-07-09T18:37:53.292864,15.10316820,.0045965,67.9873,56.9844,264.1170,95.4739,0,U,26474,999,41134,.10945E-3,.17E-4,0
ENVISAT,2002-009A,2026-07-09T15:49:28.772256,14.39069937,.0001354,98.3845,141.4780,84.1623,89.0213,0,U,27386,999,27671,.25423E-4,.36E-6,0
IDEFIX & ARIANE 42P R/B,2002-021B,2026-07-09T07:02:16.488960,14.31092144,.00115227,98.5942,127.5372,183.7165,176.3934,0,U,27422,999,26141,.65339935E-4,.128E-5,0
AQUA,2002-022A,2026-07-09T20:19:22.465920,14.62192238,.0000785,98.4291,160.5845,103.5476,343.2193,0,U,27424,999,28658,.1073E-3,.491E-5,0
CZ-4B R/B,2002-024C,2026-07-09T14:31:06.523104,14.14567746,.0050756,98.8689,243.2782,37.7284,90.1973,0,U,27432,999,24647,.21925E-4,-.2E-7,0
MIDORI II (ADEOS-II),2002-056A,2026-07-09T14:36:12.829248,14.29361303,.0001706,98.7891,150.0604,47.5905,312.5420,0,U,27597,999,22771,.75585E-4,.147E-5,0
H-2A R/B,2002-056E,2026-07-08T22:12:27.678240,14.33831655,.00705026,98.3324,145.8088,159.4596,268.9584,0,U,27601,999,23148,.67520945E-4,.152E-5,0
CZ-4B R/B,2003-049C,2026-07-09T17:12:23.586624,14.55113787,.0047323,98.6906,190.4613,218.2137,141.5701,0,U,28059,999,20434,.49457E-4,.165E-5,0
CZ-2C R/B,2004-012C,2026-07-08T19:16:42.700800,15.83823781,.00111271,97.7050,268.0571,210.2414,149.8213,0,U,28222,999,22331,.44522244E-3,.99446E-3,0
SL-16 R/B,2004-021B,2026-07-09T15:32:41.337024,14.14615079,.0006462,71.0023,336.5501,229.7295,130.3263,0,U,28353,999,14008,.12681E-3,.196E-5,0
CZ-4B R/B,2004-035C,2026-07-09T16:25:54.807168,15.30942073,.0028955,97.3363,223.5074,253.2571,106.5493,0,U,28415,999,19856,.17086E-3,.5094E-4,0
CZ-2C R/B,2004-046B,2026-07-09T04:59:55.074912,14.27031973,.0139791,98.1926,97.6108,155.0214,205.7818,0,U,28480,999,12583,.36568562E-4,.58E-6,0
ARIANE 5 R/B,2004-049H,2026-07-09T18:18:40.741920,14.85475065,.0082899,98.2737,3.8907,316.1224,43.3424,0,U,28499,999,16391,.42624E-4,.324E-5,0
CZ-2D R/B,2005-024B,2026-07-08T14:59:09.665088,15.72109039,.00012609,97.3477,210.1597,219.5546,140.5626,0,U,28738,999,15870,.38743077E-3,.50849E-3,0
ALOS (DAICHI),2006-002A,2026-07-09T19:46:44.296320,14.70095524,.000078,98.1335,146.3227,84.1885,275.9410,0,U,28931,999,9142,.11792E-3,.659E-5,0
H-2A R/B,2006-002B,2026-07-08T22:28:05.332512,15.18377997,.00504245,98.2584,347.7399,187.2932,172.7573,0,U,28932,999,11282,.26202164E-3,.5483E-4,0
